STARLINK-30261          
1 57523U 23115C   26068.19914880  .00006542  00000+0  24713-3 0  9992
2 57523  43.0067   4.5829 0002529 262.2498  97.8066 15.27571858142274
FLOCK 4G-29             
1 62642U 25009AK  26068.81464037  .00011147  00000+0  41831-3 0  9994
2 62642  97.4058 151.3683 0001366 288.0502  72.0588 15.27382318 63721
